[{"OBJECT_NAME":"ONEWEB-0311","OBJECT_ID":"2021-075Y","EPOCH":"2026-04-20T03:45:19.978272","MEAN_MOTION":13.17647904,"ECCENTRICITY":0.0001584,"INCLINATION":87.9192,"RA_OF_ASC_NODE":17.3886,"ARG_OF_PERICENTER":92.5121,"MEAN_ANOMALY":267.6192,"EPHEMERIS_TYPE":0,"CLASSIFICATION_TYPE":"U","NORAD_CAT_ID":49097,"ELEMENT_SET_NO":999,"REV_AT_EPOCH":22598,"BSTAR":0.00026447,"MEAN_MOTION_DOT":1.16e-06,"MEAN_MOTION_DDOT":0.0},{"OBJECT_NAME":"ONEWEB-0312","OBJECT_ID":"2021-075Z","EPOCH":"2026-04-20T04:07:11.112096","MEAN_MOTION":13.17649327,"ECCENTRICITY":0.0001432,"INCLINATION":87.918,"RA_OF_ASC_NODE":17.3997,"ARG_OF_PERICENTER":77.2149,"MEAN_ANOMALY":282.9143,"EPHEMERIS_TYPE":0,"CLASSIFICATION_TYPE":"U","NORAD_CAT_ID":49098,"ELEMENT_SET_NO":999,"REV_AT_EPOCH":22596,"BSTAR":-0.00048415999999999997,"MEAN_MOTION_DOT":-1.75e-06,"MEAN_MOTION_DDOT":0.0},{"OBJECT_NAME":"ONEWEB-0313","OBJECT_ID":"2021-075AA","EPOCH":"2026-04-20T04:14:17.657664","MEAN_MOTION":13.17647299,"ECCENTRICITY":0.0001733,"INCLINATION":87.9184,"RA_OF_ASC_NODE":17.4058,"ARG_OF_PERICENTER":81.8811,"MEAN_ANOMALY":278.2517,"EPHEMERIS_TYPE":0,"CLASSIFICATION_TYPE":"U","NORAD_CAT_ID":49099,"ELEMENT_SET_NO":999,"REV_AT_EPOCH":22595,"BSTAR":0.00026351,"MEAN_MOTION_DOT":1.15e-06,"MEAN_MOTION_DDOT":0.0},{"OBJECT_NAME":"ONEWEB-0314","OBJECT_ID":"2021-075AB","EPOCH":"2026-04-20T03:25:53.654304","MEAN_MOTION":13.17648187,"ECCENTRICITY":0.0001421,"INCLINATION":87.9191,"RA_OF_ASC_NODE":17.3781,"ARG_OF_PERICENTER":78.0234,"MEAN_ANOMALY":282.1056,"EPHEMERIS_TYPE":0,"CLASSIFICATION_TYPE":"U","NORAD_CAT_ID":49100,"ELEMENT_SET_NO":999,"REV_AT_EPOCH":22592,"BSTAR":1.1011e-05,"MEAN_MOTION_DOT":1.7e-07,"MEAN_MOTION_DDOT":0.0},{"OBJECT_NAME":"ONEWEB-0315","OBJECT_ID":"2021-075AC","EPOCH":"2026-04-20T04:36:30.452832","MEAN_MOTION":13.12443055,"ECCENTRICITY":0.0001681,"INCLINATION":87.9003,"RA_OF_ASC_NODE":2.1657,"ARG_OF_PERICENTER":92.3504,"MEAN_ANOMALY":267.7817,"EPHEMERIS_TYPE":0,"CLASSIFICATION_TYPE":"U","NORAD_CAT_ID":49101,"ELEMENT_SET_NO":999,"REV_AT_EPOCH":22756,"BSTAR":-0.0009221300000000001,"MEAN_MOTION_DOT":-3.19e-06,"MEAN_MOTION_DDOT":0.0},{"OBJECT_NAME":"ONEWEB-0316","OBJECT_ID":"2021-075AD","EPOCH":"2026-04-20T04:32:29.410656","MEAN_MOTION":13.18685113,"ECCENTRICITY":0.0001715,"INCLINATION":87.9206,"RA_OF_ASC_NODE":346.9946,"ARG_OF_PERICENTER":84.2197,"MEAN_ANOMALY":275.9131,"EPHEMERIS_TYPE":0,"CLASSIFICATION_TYPE":"U","NORAD_CAT_ID":49102,"ELEMENT_SET_NO":999,"REV_AT_EPOCH":22956,"BSTAR":0.00016851,"MEAN_MOTION_DOT":7.9e-07,"MEAN_MOTION_DDOT":0.0},{"OBJECT_NAME":"ONEWEB-0317","OBJECT_ID":"2021-075AE","EPOCH":"2026-04-20T04:41:23.108640","MEAN_MOTION":13.12443211,"ECCENTRICITY":0.0002148,"INCLINATION":87.9008,"RA_OF_ASC_NODE":2.1879,"ARG_OF_PERICENTER":61.0877,"MEAN_ANOMALY":299.0467,"EPHEMERIS_TYPE":0,"CLASSIFICATION_TYPE":"U","NORAD_CAT_ID":49103,"ELEMENT_SET_NO":999,"REV_AT_EPOCH":22758,"BSTAR":-0.00062934,"MEAN_MOTION_DOT":-2.14e-06,"MEAN_MOTION_DDOT":0.0},{"OBJECT_NAME":"ONEWEB-0318","OBJECT_ID":"2021-075AF","EPOCH":"2026-04-20T04:27:44.248320","MEAN_MOTION":13.18684706,"ECCENTRICITY":0.0001704,"INCLINATION":87.9216,"RA_OF_ASC_NODE":346.9917,"ARG_OF_PERICENTER":90.5702,"MEAN_ANOMALY":269.5626,"EPHEMERIS_TYPE":0,"CLASSIFICATION_TYPE":"U","NORAD_CAT_ID":49104,"ELEMENT_SET_NO":999,"REV_AT_EPOCH":22952,"BSTAR":-1.9288e-05,"MEAN_MOTION_DOT":5e-08,"MEAN_MOTION_DDOT":0.0},{"OBJECT_NAME":"ONEWEB-0319","OBJECT_ID":"2021-075AG","EPOCH":"2026-04-20T03:47:45.859488","MEAN_MOTION":13.17647875,"ECCENTRICITY":0.0001747,"INCLINATION":87.9188,"RA_OF_ASC_NODE":17.3968,"ARG_OF_PERICENTER":97.5349,"MEAN_ANOMALY":262.5982,"EPHEMERIS_TYPE":0,"CLASSIFICATION_TYPE":"U","NORAD_CAT_ID":49105,"ELEMENT_SET_NO":999,"REV_AT_EPOCH":22596,"BSTAR":0.00027212,"MEAN_MOTION_DOT":1.19e-06,"MEAN_MOTION_DDOT":0.0},{"OBJECT_NAME":"ONEWEB-0323","OBJECT_ID":"2021-075AH","EPOCH":"2026-04-20T04:14:33.391104","MEAN_MOTION":13.12442219,"ECCENTRICITY":0.0001425,"INCLINATION":87.9004,"RA_OF_ASC_NODE":2.1728,"ARG_OF_PERICENTER":98.2046,"MEAN_ANOMALY":261.9244,"EPHEMERIS_TYPE":0,"CLASSIFICATION_TYPE":"U","NORAD_CAT_ID":49106,"ELEMENT_SET_NO":999,"REV_AT_EPOCH":22694,"BSTAR":-0.00090865,"MEAN_MOTION_DOT":-3.14e-06,"MEAN_MOTION_DDOT":0.0},{"OBJECT_NAME":"ONEWEB-0329","OBJECT_ID":"2021-075AJ","EPOCH":"2026-04-20T03:59:53.788128","MEAN_MOTION":13.1764894,"ECCENTRICITY":0.0001679,"INCLINATION":87.9184,"RA_OF_ASC_NODE":17.3956,"ARG_OF_PERICENTER":79.9299,"MEAN_ANOMALY":280.2022,"EPHEMERIS_TYPE":0,"CLASSIFICATION_TYPE":"U","NORAD_CAT_ID":49107,"ELEMENT_SET_NO":999,"REV_AT_EPOCH":22594,"BSTAR":-0.00032790000000000006,"MEAN_MOTION_DOT":-1.14e-06,"MEAN_MOTION_DDOT":0.0},{"OBJECT_NAME":"ONEWEB-0330","OBJECT_ID":"2021-075AK","EPOCH":"2026-04-20T04:34:08.754240","MEAN_MOTION":13.17649206,"ECCENTRICITY":0.0001593,"INCLINATION":87.9189,"RA_OF_ASC_NODE":17.4099,"ARG_OF_PERICENTER":73.7465,"MEAN_ANOMALY":286.3841,"EPHEMERIS_TYPE":0,"CLASSIFICATION_TYPE":"U","NORAD_CAT_ID":49108,"ELEMENT_SET_NO":999,"REV_AT_EPOCH":22598,"BSTAR":0.0002746,"MEAN_MOTION_DOT":1.19e-06,"MEAN_MOTION_DDOT":0.0},{"OBJECT_NAME":"ONEWEB-0292","OBJECT_ID":"2021-083A","EPOCH":"2026-04-20T01:00:33.666912","MEAN_MOTION":13.13470375,"ECCENTRICITY":0.0001698,"INCLINATION":87.8963,"RA_OF_ASC_NODE":331.8265,"ARG_OF_PERICENTER":90.1573,"MEAN_ANOMALY":269.975,"EPHEMERIS_TYPE":0,"CLASSIFICATION_TYPE":"U","NORAD_CAT_ID":49186,"ELEMENT_SET_NO":999,"REV_AT_EPOCH":22329,"BSTAR":-3.8064e-05,"MEAN_MOTION_DOT":-1e-08,"MEAN_MOTION_DDOT":0.0},{"OBJECT_NAME":"ONEWEB-0303","OBJECT_ID":"2021-083B","EPOCH":"2026-04-20T04:22:59.342592","MEAN_MOTION":13.18684924,"ECCENTRICITY":0.0001682,"INCLINATION":87.9211,"RA_OF_ASC_NODE":346.9941,"ARG_OF_PERICENTER":87.2919,"MEAN_ANOMALY":272.8406,"EPHEMERIS_TYPE":0,"CLASSIFICATION_TYPE":"U","NORAD_CAT_ID":49187,"ELEMENT_SET_NO":999,"REV_AT_EPOCH":22233,"BSTAR":5.748e-05,"MEAN_MOTION_DOT":3.6e-07,"MEAN_MOTION_DDOT":0.0},{"OBJECT_NAME":"ONEWEB-0306","OBJECT_ID":"2021-083C","EPOCH":"2026-04-20T04:08:44.691936","MEAN_MOTION":13.18686396,"ECCENTRICITY":0.0001821,"INCLINATION":87.9216,"RA_OF_ASC_NODE":346.9807,"ARG_OF_PERICENTER":75.8729,"MEAN_ANOMALY":284.2605,"EPHEMERIS_TYPE":0,"CLASSIFICATION_TYPE":"U","NORAD_CAT_ID":49188,"ELEMENT_SET_NO":999,"REV_AT_EPOCH":22237,"BSTAR":0.00010417,"MEAN_MOTION_DOT":5.4e-07,"MEAN_MOTION_DDOT":0.0},{"OBJECT_NAME":"ONEWEB-0307","OBJECT_ID":"2021-083D","EPOCH":"2026-04-20T00:52:00.492384","MEAN_MOTION":13.13470308,"ECCENTRICITY":0.000166,"INCLINATION":87.8971,"RA_OF_ASC_NODE":331.8187,"ARG_OF_PERICENTER":87.2775,"MEAN_ANOMALY":272.8545,"EPHEMERIS_TYPE":0,"CLASSIFICATION_TYPE":"U","NORAD_CAT_ID":49189,"ELEMENT_SET_NO":999,"REV_AT_EPOCH":22329,"BSTAR":-0.0007085700000000001,"MEAN_MOTION_DOT":-2.46e-06,"MEAN_MOTION_DDOT":0.0}]