ONEWEB-0311             
1 49097U 21075Y   26110.15648123  .00000116  00000+0  26447-3 0  9997
2 49097  87.9192  17.3886 0001584  92.5121 267.6192 13.17647904225989
ONEWEB-0312             
1 49098U 21075Z   26110.17165639 -.00000175  00000+0 -48416-3 0  9993
2 49098  87.9180  17.3997 0001432  77.2149 282.9143 13.17649327225967
ONEWEB-0313             
1 49099U 21075AA  26110.17659326  .00000115  00000+0  26351-3 0  9991
2 49099  87.9184  17.4058 0001733  81.8811 278.2517 13.17647299225950
ONEWEB-0314             
1 49100U 21075AB  26110.14298211  .00000017  00000+0  11011-4 0  9992
2 49100  87.9191  17.3781 0001421  78.0234 282.1056 13.17648187225920
ONEWEB-0315             
1 49101U 21075AC  26110.19201913 -.00000319  00000+0 -92213-3 0  9990
2 49101  87.9003   2.1657 0001681  92.3504 267.7817 13.12443055227562
ONEWEB-0316             
1 49102U 21075AD  26110.18922929  .00000079  00000+0  16851-3 0  9992
2 49102  87.9206 346.9946 0001715  84.2197 275.9131 13.18685113229565
ONEWEB-0317             
1 49103U 21075AE  26110.19540635 -.00000214  00000+0 -62934-3 0  9990
2 49103  87.9008   2.1879 0002148  61.0877 299.0467 13.12443211227585
ONEWEB-0318             
1 49104U 21075AF  26110.18592880  .00000005  00000+0 -19288-4 0  9991
2 49104  87.9216 346.9917 0001704  90.5702 269.5626 13.18684706229527
ONEWEB-0319             
1 49105U 21075AG  26110.15816967  .00000119  00000+0  27212-3 0  9994
2 49105  87.9188  17.3968 0001747  97.5349 262.5982 13.17647875225969
ONEWEB-0323             
1 49106U 21075AH  26110.17677536 -.00000314  00000+0 -90865-3 0  9997
2 49106  87.9004   2.1728 0001425  98.2046 261.9244 13.12442219226941
ONEWEB-0329             
1 49107U 21075AJ  26110.16659477 -.00000114  00000+0 -32790-3 0  9992
2 49107  87.9184  17.3956 0001679  79.9299 280.2022 13.17648940225940
ONEWEB-0330             
1 49108U 21075AK  26110.19037910  .00000119  00000+0  27460-3 0  9999
2 49108  87.9189  17.4099 0001593  73.7465 286.3841 13.17649206225983
ONEWEB-0292             
1 49186U 21083A   26110.04205633 -.00000001  00000+0 -38064-4 0  9992
2 49186  87.8963 331.8265 0001698  90.1573 269.9750 13.13470375223298
ONEWEB-0303             
1 49187U 21083B   26110.18263128  .00000036  00000+0  57480-4 0  9990
2 49187  87.9211 346.9941 0001682  87.2919 272.8406 13.18684924222335
ONEWEB-0306             
1 49188U 21083C   26110.17273949  .00000054  00000+0  10417-3 0  9990
2 49188  87.9216 346.9807 0001821  75.8729 284.2605 13.18686396222376
ONEWEB-0307             
1 49189U 21083D   26110.03611681 -.00000246  00000+0 -70857-3 0  9994
2 49189  87.8971 331.8187 0001660  87.2775 272.8545 13.13470308223294
